FORMOSAT 7-2            
1 44351U 19036N   26137.28518661  .00001745  00000+0  12443-3 0  9995
2 44351  23.9992 357.1221 0000572 167.7611 192.2904 14.96359500378958
FORMOSAT 7-6            
1 44353U 19036Q   26137.41845993  .00001487  00000+0  10215-3 0  9991
2 44353  23.9962 177.0415 0001446 100.3204 259.7460 14.96369506377203
FORMOSAT 7-5            
1 44358U 19036V   26137.32912463  .00001600  00000+0  11194-3 0  9997
2 44358  23.9976 116.3914 0000524 146.5416 213.5118 14.96369057377722
METEOR-M2 2             
1 44387U 19038A   26137.47675487  .00000110  00000+0  67228-4 0  9994
2 44387  98.9131 124.3111 0002359  94.8807 265.2641 14.24357413356922
GLOBAL-4                
1 44499U 19054E   26137.14127118  .00040788  00000+0  47013-3 0  9997
2 44499  45.0077  55.1139 0003906 142.8622 217.2545 15.61318100375504
ZY-1 02D                
1 44528U 19059A   26137.53869527  .00000292  00000+0  11612-3 0  9997
2 44528  98.3208 200.1058 0001163 153.0119 207.1128 14.35450226349944
TAURUS-1 (JINNIUZUO 1)  
1 44530U 19059C   26137.51629125  .00004889  00000+0  79173-3 0  9998
2 44530  98.6389 300.4546 0009181  55.6768 304.5304 14.71738538354131
ZHUHAI-1 03B            
1 44536U 19060C   26137.45183494  .00020950  00000+0  34524-3 0  9991
2 44536  97.5499 293.6084 0009527  75.1151 285.1155 15.52293029371558
ZHUHAI-1 03C            
1 44537U 19060D   26137.48508895  .00335959  48126-4  75441-3 0  9998
2 44537  97.5428 306.5098 0005470 300.2311  59.8423 15.97697498372353
ZHUHAI-1 03D            
1 44538U 19060E   26137.53519212  .00019096  00000+0  36738-3 0  9991
2 44538  97.5361 286.0871 0007949  61.8142 298.3910 15.47924728371338
ZHUHAI-1 03E            
1 44539U 19060F   26137.51978519  .00011783  00000+0  29719-3 0  9995
2 44539  97.5576 286.4367 0007176 128.5176 231.6714 15.39997492371040
GAOFEN-7                
1 44703U 19072A   26137.48501362  .00002805  00000+0  12776-3 0  9995
2 44703  97.2445 200.1022 0017729 139.4792 220.7768 15.21343085362970
JILIN-1 GAOFEN 2A       
1 44777U 19075A   26137.50821498  .00009656  00000+0  25685-3 0  9991
2 44777  97.4967 220.6028 0006684 179.7688 180.3561 15.38421800360165
NINGXIA-1 1             
1 44779U 19076A   26137.54065166 -.00000077  00000+0  34243-4 0  9990
2 44779  45.0067 316.8055 0010926   9.9168 350.1880 14.02035798333557
NINGXIA-1 5             
1 44783U 19076E   26137.55499111  .00000024  00000+0  10035-3 0  9990
2 44783  45.0063 316.0954 0010909 359.6004   0.4820 14.02084111333476
KL-ALPHA A              
1 44785U 19077A   26137.57191368  .00000128  00000+0  16584-3 0  9998
2 44785  88.9268 225.9093 0010735 187.2427 172.8573 13.56039648321585
CARTOSAT-3              
1 44804U 19081A   26137.46493877  .00002380  00000+0  11616-3 0  9996
2 44804  97.4326 199.8212 0011061 256.9313 103.0687 15.19217472358801
JILIN-1 GAOFEN 2B       
1 44836U 19086A   26137.48030171  .00004697  00000+0  21853-3 0  9999
2 44836  97.4891 209.6708 0015564  70.6172 289.6743 15.20332902355820
TIANQIN 1 (CAS-6)       
1 44879U 19093A   26137.50895824  .00002328  00000+0  21647-3 0  9991
2 44879  97.7802 221.5748 0012085 149.8860 210.3057 14.95270233347466
ETRSS-1                 
1 44880U 19093B   26137.52435115  .00003943  00000+0  35905-3 0  9994
2 44880  97.7829 222.0231 0012335 148.9290 211.2663 14.95683958347471
TIANYAN 01              
1 44881U 19093C   26137.48421434  .00000601  00000+0  73981-4 0  9994
2 44881  97.7542 210.4643 0013392 181.8557 178.2611 14.86463244346858
TIANYAN 02              
1 44882U 19093D   26137.53593758  .00005131  00000+0  36702-3 0  9992
2 44882  97.7928 232.0444 0015126 125.6466 234.6171 15.04808918348007
CBERS 4A                
1 44883U 19093E   26137.49609730  .00001044  00000+0  13912-3 0  9993
2 44883  97.7513 205.7174 0000545 325.8222  34.2956 14.81654433346534
WEILAI 1R               
1 44884U 19093F   26137.51235887  .00004934  00000+0  39687-3 0  9993
2 44884  97.7841 227.3648 0015897 130.4042 229.8572 15.00356825347826
FLORIPASAT-1            
1 44885U 19093G   26137.48197475  .00006247  00000+0  46182-3 0  9997
2 44885  97.7896 231.4974 0012206 169.7970 190.3505 15.03511964348033
SHUNTIAN                
1 44886U 19093H   26137.48820956  .00001384  00000+0  13181-3 0  9995
2 44886  97.8010 225.8109 0012120 160.2936 199.8755 14.94991448347592
ELEKTRO-L 3             
1 44903U 19095A   26137.47109969 -.00000089  00000+0  00000+0 0  9994
2 44903   0.1768  79.8882 0000946 319.9819  80.8471  1.00270871 23408
