OBJECT_NAME,OBJECT_ID,EPOCH,MEAN_MOTION,ECCENTRICITY,INCLINATION,RA_OF_ASC_NODE,ARG_OF_PERICENTER,MEAN_ANOMALY,EPHEMERIS_TYPE,CLASSIFICATION_TYPE,NORAD_CAT_ID,ELEMENT_SET_NO,REV_AT_EPOCH,BSTAR,MEAN_MOTION_DOT,MEAN_MOTION_DDOT
FORMOSAT 7-2,2019-036N,2026-05-17T06:50:40.123104,14.96359500,.0000572,23.9992,357.1221,167.7611,192.2904,0,U,44351,999,37895,.12443E-3,.1745E-4,0
FORMOSAT 7-6,2019-036Q,2026-05-17T10:02:34.937952,14.96369506,.0001446,23.9962,177.0415,100.3204,259.7460,0,U,44353,999,37720,.10215E-3,.1487E-4,0
FORMOSAT 7-5,2019-036V,2026-05-17T07:53:56.368032,14.96369057,.0000524,23.9976,116.3914,146.5416,213.5118,0,U,44358,999,37772,.11194E-3,.16E-4,0
METEOR-M2 2,2019-038A,2026-05-17T11:26:31.620768,14.24357413,.0002359,98.9131,124.3111,94.8807,265.2641,0,U,44387,999,35692,.67228E-4,.11E-5,0
GLOBAL-4,2019-054E,2026-05-17T03:23:25.829952,15.61318100,.0003906,45.0077,55.1139,142.8622,217.2545,0,U,44499,999,37550,.47013E-3,.40788E-3,0
ZY-1 02D,2019-059A,2026-05-17T12:55:43.271328,14.35450226,.0001163,98.3208,200.1058,153.0119,207.1128,0,U,44528,999,34994,.11612E-3,.292E-5,0
TAURUS-1 (JINNIUZUO 1),2019-059C,2026-05-17T12:23:27.564000,14.71738538,.0009181,98.6389,300.4546,55.6768,304.5304,0,U,44530,999,35413,.79173E-3,.4889E-4,0
ZHUHAI-1 03B,2019-060C,2026-05-17T10:50:38.538816,15.52293029,.0009527,97.5499,293.6084,75.1151,285.1155,0,U,44536,999,37155,.34524E-3,.2095E-3,0
ZHUHAI-1 03C,2019-060D,2026-05-17T11:38:31.685280,15.97697498,.000547,97.5428,306.5098,300.2311,59.8423,0,U,44537,999,37235,.75441E-3,.335959E-2,.48126E-4
ZHUHAI-1 03D,2019-060E,2026-05-17T12:50:40.599168,15.47924728,.0007949,97.5361,286.0871,61.8142,298.3910,0,U,44538,999,37133,.36738E-3,.19096E-3,0
ZHUHAI-1 03E,2019-060F,2026-05-17T12:28:29.440416,15.39997492,.0007176,97.5576,286.4367,128.5176,231.6714,0,U,44539,999,37104,.29719E-3,.11783E-3,0
GAOFEN-7,2019-072A,2026-05-17T11:38:25.176768,15.21343085,.0017729,97.2445,200.1022,139.4792,220.7768,0,U,44703,999,36297,.12776E-3,.2805E-4,0
JILIN-1 GAOFEN 2A,2019-075A,2026-05-17T12:11:49.774272,15.38421800,.0006684,97.4967,220.6028,179.7688,180.3561,0,U,44777,999,36016,.25685E-3,.9656E-4,0
NINGXIA-1 1,2019-076A,2026-05-17T12:58:32.303424,14.02035798,.0010926,45.0067,316.8055,9.9168,350.1880,0,U,44779,999,33355,.34243E-4,-.77E-6,0
NINGXIA-1 5,2019-076E,2026-05-17T13:19:11.231904,14.02084111,.0010909,45.0063,316.0954,359.6004,0.4820,0,U,44783,999,33347,.10035E-3,.24E-6,0
KL-ALPHA A,2019-077A,2026-05-17T13:43:33.341952,13.56039648,.0010735,88.9268,225.9093,187.2427,172.8573,0,U,44785,999,32158,.16584E-3,.128E-5,0
CARTOSAT-3,2019-081A,2026-05-17T11:09:30.709728,15.19217472,.0011061,97.4326,199.8212,256.9313,103.0687,0,U,44804,999,35880,.11616E-3,.238E-4,0
JILIN-1 GAOFEN 2B,2019-086A,2026-05-17T11:31:38.067744,15.20332902,.0015564,97.4891,209.6708,70.6172,289.6743,0,U,44836,999,35582,.21853E-3,.4697E-4,0
TIANQIN 1 (CAS-6),2019-093A,2026-05-17T12:12:53.991936,14.95270233,.0012085,97.7802,221.5748,149.8860,210.3057,0,U,44879,999,34746,.21647E-3,.2328E-4,0
ETRSS-1,2019-093B,2026-05-17T12:35:03.939360,14.95683958,.0012335,97.7829,222.0231,148.9290,211.2663,0,U,44880,999,34747,.35905E-3,.3943E-4,0
TIANYAN 01,2019-093C,2026-05-17T11:37:16.118976,14.86463244,.0013392,97.7542,210.4643,181.8557,178.2611,0,U,44881,999,34685,.73981E-4,.601E-5,0
TIANYAN 02,2019-093D,2026-05-17T12:51:45.006912,15.04808918,.0015126,97.7928,232.0444,125.6466,234.6171,0,U,44882,999,34800,.36702E-3,.5131E-4,0
CBERS 4A,2019-093E,2026-05-17T11:54:22.806720,14.81654433,.0000545,97.7513,205.7174,325.8222,34.2956,0,U,44883,999,34653,.13912E-3,.1044E-4,0
WEILAI 1R,2019-093F,2026-05-17T12:17:47.806368,15.00356825,.0015897,97.7841,227.3648,130.4042,229.8572,0,U,44884,999,34782,.39687E-3,.4934E-4,0
FLORIPASAT-1,2019-093G,2026-05-17T11:34:02.618400,15.03511964,.0012206,97.7896,231.4974,169.7970,190.3505,0,U,44885,999,34803,.46182E-3,.6247E-4,0
SHUNTIAN,2019-093H,2026-05-17T11:43:01.305984,14.94991448,.001212,97.8010,225.8109,160.2936,199.8755,0,U,44886,999,34759,.13181E-3,.1384E-4,0
ELEKTRO-L 3,2019-095A,2026-05-17T11:18:23.013216,1.00270871,.0000946,0.1768,79.8882,319.9819,80.8471,0,U,44903,999,2340,0,-.89E-6,0
